     2.11           N: GPS NAV DATA                         RINEX VERSION / TYPE
teqc  2019Feb25                         20221121 12:24:07UTCPGM / RUN BY / DATE
OSX ker:10.11.6|Core i5|gcc 4.3 -m64|OSX ker:10.10+|=+      COMMENT
    5.5879D-09  1.4901D-08 -5.9605D-08 -1.1921D-07          ION ALPHA
    8.3968D+04  9.8304D+04 -6.5536D+04 -5.2429D+05          ION BETA
   -9.313225746155D-09-2.042810365310D-14   589824     1535 DELTA-UTC: A0,A1,T,W
                                                            END OF HEADER
18 09  6 12  0  0  0.0-4.900898784399D-05 3.183231456205D-12 0.000000000000D+00
    4.900000000000D+01 4.278125000000D+01 4.438042005121D-09 3.129847519238D+00
    2.181157469749D-06 1.048896601424D-02 1.020357012749D-05 5.153606100082D+03
    4.320000000000D+05 2.048909664154D-08 4.279576266558D-01-1.229345798492D-07
    9.425017551641D-01 1.727187500000D+02-2.417385475888D+00-7.765680614625D-09
   -2.650110387735D-10 1.000000000000D+00 1.535000000000D+03 0.000000000000D+00
    2.000000000000D+00 0.000000000000D+00-1.071020960808D-08 4.900000000000D+01
    4.317720000000D+05 4.000000000000D+00
19 09  6 12  0  0  0.0 2.280762419105D-05-1.250555214938D-12 0.000000000000D+00
    6.500000000000D+01 1.656250000000D+00 4.790556688772D-09 1.218560952058D+00
    2.197921276093D-07 5.658113746904D-03 7.562339305878D-06 5.153611541748D+03
    4.320000000000D+05 9.313225746155D-08-1.622128646112D+00-1.862645149231D-09
    9.570294650329D-01 2.248125000000D+02-3.531109429110D-01-8.030334495665D-09
    1.589351917173D-10 1.000000000000D+00 1.535000000000D+03 0.000000000000D+00
    2.000000000000D+00 0.000000000000D+00-1.443549990654D-08 6.500000000000D+01
    4.272120000000D+05 4.000000000000D+00
25 09  6 12  0  0  0.0 4.580952227116D-04 1.818989403546D-11 0.000000000000D+00
    6.600000000000D+01-2.490625000000D+01 4.459828626907D-09-2.735234010276D+00
   -1.182779669762D-06 1.136225624941D-02 1.998618245125D-06 5.153650878906D+03
    4.320000000000D+05 5.960464477539D-08 2.399557327743D+00 2.067536115646D-07
    9.698350423681D-01 3.408437500000D+02-1.208063556628D+00-8.057835641198D-09
    1.371485699313D-10 1.000000000000D+00 1.535000000000D+03 0.000000000000D+00
    2.800000000000D+00 0.000000000000D+00-7.450580596924D-09 6.600000000000D+01
    4.248180000000D+05 4.000000000000D+00
 6 09  6 12  0  0  0.0 1.576486974955D-04 1.341504685115D-11 0.000000000000D+00
    7.700000000000D+01 1.312500000000D+00 5.264147844316D-09 2.904547897530D+00
    3.110617399216D-07 6.000428460538D-03 8.322298526764D-06 5.153702819824D+03
    4.320000000000D+05 2.253800630569D-07-1.741877031416D+00 2.980232238770D-08
    9.334430518899D-01 2.003125000000D+02-1.347136100826D+00-8.209270520497D-09
    2.882262914962D-10 1.000000000000D+00 1.535000000000D+03 0.000000000000D+00
    2.000000000000D+00 0.000000000000D+00-4.656612873077D-09 7.700000000000D+01
    4.248180000000D+05 4.000000000000D+00
 8 09  6 12  0  0  0.0-2.073040232062D-04-1.591615728103D-12 0.000000000000D+00
    8.000000000000D+01-4.950000000000D+01 4.136600877459D-09-1.626062905350D+00
   -2.844259142876D-06 1.062481838744D-02 3.322958946228D-06 5.153645172119D+03
    4.320000000000D+05 4.284083843231D-08 2.554707246543D+00-1.825392246246D-07
    9.888958350466D-01 3.326250000000D+02 2.992511711884D+00-8.067836057755D-09
    1.239337337660D-10 1.000000000000D+00 1.535000000000D+03 0.000000000000D+00
    2.000000000000D+00 0.000000000000D+00-3.725290298462D-09 8.000000000000D+01
    4.286820000000D+05 4.000000000000D+00
21 09  6 12  0  0  0.0 8.889939635992D-06-2.160049916711D-12 0.000000000000D+00
    4.600000000000D+01-7.468750000000D+00 5.220217443010D-09-1.871025347099D+00
   -5.401670932770D-07 1.536245120224D-02 5.658715963364D-06 5.153601316452D+03
    4.320000000000D+05 4.842877388000D-08-6.299438479184D-01-2.123415470123D-07
    9.339041358730D-01 2.549062500000D+02-2.593952077956D+00-8.154625387165D-09
   -1.171477368163D-10 1.000000000000D+00 1.535000000000D+03 0.000000000000D+00
    2.000000000000D+00 0.000000000000D+00-1.210719347000D-08 4.600000000000D+01
    4.248180000000D+05 4.000000000000D+00
 7 09  6 12  0  0  0.0 1.723505556583D-05-6.821210263297D-13 0.000000000000D+00
    2.400000000000D+01-4.003125000000D+01 4.593405619496D-09-8.957932561505D-01
   -2.196058630943D-06 2.667363034561D-03 2.581626176834D-06 5.153667428970D+03
    4.320000000000D+05 4.842877388000D-08 2.494032774796D+00 2.607703208923D-08
    9.676549740509D-01 3.310000000000D+02 2.873618680152D+00-8.307131739667D-09
    7.821754378894D-11 1.000000000000D+00 1.535000000000D+03 0.000000000000D+00
    2.000000000000D+00 0.000000000000D+00-1.071020960808D-08 2.400000000000D+01
    4.248180000000D+05 4.000000000000D+00
 3 09  6 12  0  0  0.0 4.054489545524D-04 5.115907697473D-12 0.000000000000D+00
    4.400000000000D+01-1.375000000000D+00 5.527730252153D-09 4.688915374318D-01
    2.682209014893D-07 1.190405956004D-02 8.387491106987D-06 5.153633142471D+03
    4.320000000000D+05-4.097819328308D-08-1.809617606683D+00 1.154839992523D-07
    9.260050248548D-01 1.983750000000D+02 9.039412695136D-01-8.573214251643D-09
    1.989368579472D-10 1.000000000000D+00 1.535000000000D+03 0.000000000000D+00
    2.000000000000D+00 0.000000000000D+00-4.190951585770D-09 4.400000000000D+01
    4.248180000000D+05 4.000000000000D+00
 3 09  6 12  2  0  0.0 4.054862074554D-04 5.115907697473D-12 0.000000000000D+00
    4.500000000000D+01-8.718750000000D+00 5.485942797252D-09 1.518952929732D+00
   -3.725290298462D-07 1.190548448358D-02 9.439885616303D-06 5.153637470245D+03
    4.392000000000D+05-3.110617399216D-07-1.809680079136D+00 9.685754776001D-08
    9.260071987510D-01 1.835937500000D+02 9.040917481931D-01-8.450351991079D-09
    3.696582548929D-10 1.000000000000D+00 1.535000000000D+03 0.000000000000D+00
    2.000000000000D+00 0.000000000000D+00-4.190951585770D-09 4.500000000000D+01
    4.320180000000D+05 4.000000000000D+00
 6 09  6 12  2  0  0.0 1.577450893819D-04 1.341504685115D-11 0.000000000000D+00
    7.900000000000D+01 5.937500000000D+00 5.267005106190D-09-2.328546795561D+00
    4.190951585770D-07 6.000518100336D-03 8.670613169670D-06 5.153702411652D+03
    4.392000000000D+05 3.166496753693D-08-1.741936671660D+00 1.247972249985D-07
    9.334460099102D-01 1.957500000000D+02-1.347058146310D+00-8.132838765379D-09
    4.393040130612D-10 1.000000000000D+00 1.535000000000D+03 0.000000000000D+00
    2.000000000000D+00 0.000000000000D+00-4.656612873077D-09 7.900000000000D+01
    4.320180000000D+05 4.000000000000D+00
 7 09  6 12  2  0  0.0 1.722993329167D-05-6.821210263297D-13 0.000000000000D+00
    2.500000000000D+01-3.537500000000D+01 4.562332896621D-09 1.542482492416D-01
   -1.773238182068D-06 2.666919492185D-03 2.551823854446D-06 5.153666385651D+03
    4.392000000000D+05 2.048909664154D-08 2.493972961927D+00 3.352761268616D-08
    9.676555767731D-01 3.326875000000D+02 2.873762907783D+00-8.308560370604D-09
    8.607501394126D-11 1.000000000000D+00 1.535000000000D+03 0.000000000000D+00
    2.000000000000D+00 0.000000000000D+00-1.071020960808D-08 2.500000000000D+01
    4.320180000000D+05 4.000000000000D+00
19 09  6 12  2  0  0.0 2.279831096530D-05-1.250555214938D-12 0.000000000000D+00
    6.600000000000D+01 4.187500000000D+00 4.840915929294D-09 2.268506923047D+00
    5.047768354416D-07 5.657737026922D-03 8.476898074150D-06 5.153614547729D+03
    4.392000000000D+05 1.024454832077D-07-1.622187336922D+00 2.123415470123D-07
    9.570310171890D-01 2.136562500000D+02-3.528361571565D-01-8.037477650349D-09
    3.217991185107D-10 1.000000000000D+00 1.535000000000D+03 0.000000000000D+00
    2.000000000000D+00 0.000000000000D+00-1.443549990654D-08 6.600000000000D+01
    4.320180000000D+05 4.000000000000D+00
25 09  6 12  2  0  0.0 4.582256078720D-04 1.807620719774D-11 0.000000000000D+00
    6.700000000000D+01-1.990625000000D+01 4.501973239542D-09-1.685090410757D+00
   -7.022172212601D-07 1.136287162080D-02 2.572312951088D-06 5.153649311066D+03
    4.392000000000D+05-2.030283212662D-07 2.399498970478D+00 2.849847078323D-07
    9.698349984805D-01 3.369375000000D+02-1.208012161390D+00-8.277844805463D-09
    1.203621564241D-10 1.000000000000D+00 1.535000000000D+03 0.000000000000D+00
    2.800000000000D+00 0.000000000000D+00-7.450580596924D-09 6.700000000000D+01
    4.320180000000D+05 4.000000000000D+00
 8 09  6 12  2  0  0.0-2.073151990771D-04-1.591615728103D-12 0.000000000000D+00
    1.150000000000D+02-4.209375000000D+01 4.081241428659D-09-5.759344982350D-01
   -2.272427082062D-06 1.062414608896D-02 2.784654498100D-06 5.153643388748D+03
    4.392000000000D+05 1.508742570877D-07 2.554649178935D+00-1.043081283569D-07
    9.888967742400D-01 3.355937500000D+02 2.992578736939D+00-8.109623512656D-09
    1.132190017402D-10 1.000000000000D+00 1.535000000000D+03 0.000000000000D+00
    2.000000000000D+00 0.000000000000D+00-3.725290298462D-09 1.150000000000D+02
    4.320180000000D+05 4.000000000000D+00
21 09  6 12  2  0  0.0 8.874572813511D-06-2.160049916711D-12 0.000000000000D+00
    5.800000000000D+01-3.312500000000D+00 5.430940506186D-09-8.208355105909D-01
   -2.551823854446D-07 1.536245015450D-02 5.505979061127D-06 5.153600120544D+03
    4.392000000000D+05 3.483146429062D-07-6.300017838631D-01 1.583248376846D-07
    9.339012188144D-01 2.574375000000D+02-2.593911667770D+00-8.509283017222D-09
   -3.818016178556D-10 1.000000000000D+00 1.535000000000D+03 0.000000000000D+00
    2.000000000000D+00 0.000000000000D+00-1.210719347000D-08 5.800000000000D+01
    4.320180000000D+05 4.000000000000D+00
